CCSDS_OMM_VERS = 2.0
CREATION_DATE  = 
ORIGINATOR     = 

OBJECT_NAME    = STARLINK-35640
OBJECT_ID      = 2025-265W
CENTER_NAME    = EARTH
REF_FRAME      = TEME
TIME_SYSTEM    = UTC
MEAN_ELEMENT_THEORY = SGP/SGP4

EPOCH          = 2025-12-10T06:00:02.000160
MEAN_MOTION    = 15.50596261
ECCENTRICITY   = .00016398
INCLINATION    = 42.9999
RA_OF_ASC_NODE = 68.4860
ARG_OF_PERICENTER = 268.2777
MEAN_ANOMALY   = 32.4366

EPHEMERIS_TYPE = 0
CLASSIFICATION_TYPE = U
NORAD_CAT_ID   = 66536
ELEMENT_SET_NO = 999
REV_AT_EPOCH   = 457
BSTAR          = -.11489025E-2
MEAN_MOTION_DOT = -.67209E-3
MEAN_MOTION_DDOT = 0

CCSDS_OMM_VERS = 2.0
CREATION_DATE  = 
ORIGINATOR     = 

OBJECT_NAME    = STARLINK-35582
OBJECT_ID      = 2025-265X
CENTER_NAME    = EARTH
REF_FRAME      = TEME
TIME_SYSTEM    = UTC
MEAN_ELEMENT_THEORY = SGP/SGP4

EPOCH          = 2025-12-10T06:00:02.000160
MEAN_MOTION    = 15.50527495
ECCENTRICITY   = .00014331
INCLINATION    = 43.0000
RA_OF_ASC_NODE = 68.4816
ARG_OF_PERICENTER = 262.7551
MEAN_ANOMALY   = 39.8889

EPHEMERIS_TYPE = 0
CLASSIFICATION_TYPE = U
NORAD_CAT_ID   = 66537
ELEMENT_SET_NO = 999
REV_AT_EPOCH   = 459
BSTAR          = .96158338E-3
MEAN_MOTION_DOT = .56373E-3
MEAN_MOTION_DDOT = 0

CCSDS_OMM_VERS = 2.0
CREATION_DATE  = 
ORIGINATOR     = 

OBJECT_NAME    = STARLINK-35577
OBJECT_ID      = 2025-265Y
CENTER_NAME    = EARTH
REF_FRAME      = TEME
TIME_SYSTEM    = UTC
MEAN_ELEMENT_THEORY = SGP/SGP4

EPOCH          = 2025-12-10T06:00:02.000160
MEAN_MOTION    = 15.50592480
ECCENTRICITY   = .0001613
INCLINATION    = 42.9999
RA_OF_ASC_NODE = 68.4756
ARG_OF_PERICENTER = 265.9678
MEAN_ANOMALY   = 38.5841

EPHEMERIS_TYPE = 0
CLASSIFICATION_TYPE = U
NORAD_CAT_ID   = 66538
ELEMENT_SET_NO = 999
REV_AT_EPOCH   = 459
BSTAR          = -.10646119E-2
MEAN_MOTION_DOT = -.62333E-3
MEAN_MOTION_DDOT = 0

CCSDS_OMM_VERS = 2.0
CREATION_DATE  = 
ORIGINATOR     = 

OBJECT_NAME    = STARLINK-35697
OBJECT_ID      = 2025-265Z
CENTER_NAME    = EARTH
REF_FRAME      = TEME
TIME_SYSTEM    = UTC
MEAN_ELEMENT_THEORY = SGP/SGP4

EPOCH          = 2025-12-10T06:00:02.000160
MEAN_MOTION    = 15.50581817
ECCENTRICITY   = .00016162
INCLINATION    = 43.0000
RA_OF_ASC_NODE = 68.4707
ARG_OF_PERICENTER = 266.3692
MEAN_ANOMALY   = 40.0975

EPHEMERIS_TYPE = 0
CLASSIFICATION_TYPE = U
NORAD_CAT_ID   = 66539
ELEMENT_SET_NO = 999
REV_AT_EPOCH   = 459
BSTAR          = -.74412131E-3
MEAN_MOTION_DOT = -.43757E-3
MEAN_MOTION_DDOT = 0

CCSDS_OMM_VERS = 2.0
CREATION_DATE  = 
ORIGINATOR     = 

OBJECT_NAME    = STARLINK-35818
OBJECT_ID      = 2025-265AA
CENTER_NAME    = EARTH
REF_FRAME      = TEME
TIME_SYSTEM    = UTC
MEAN_ELEMENT_THEORY = SGP/SGP4

EPOCH          = 2025-12-10T06:00:02.000160
MEAN_MOTION    = 15.50598599
ECCENTRICITY   = .00015896
INCLINATION    = 42.9999
RA_OF_ASC_NODE = 68.4658
ARG_OF_PERICENTER = 271.2660
MEAN_ANOMALY   = 37.1159

EPHEMERIS_TYPE = 0
CLASSIFICATION_TYPE = U
NORAD_CAT_ID   = 66540
ELEMENT_SET_NO = 999
REV_AT_EPOCH   = 459
BSTAR          = -.11985241E-2
MEAN_MOTION_DOT = -.70077E-3
MEAN_MOTION_DDOT = 0

CCSDS_OMM_VERS = 2.0
CREATION_DATE  = 
ORIGINATOR     = 

OBJECT_NAME    = STARLINK-35796
OBJECT_ID      = 2025-265AB
CENTER_NAME    = EARTH
REF_FRAME      = TEME
TIME_SYSTEM    = UTC
MEAN_ELEMENT_THEORY = SGP/SGP4

EPOCH          = 2025-12-10T06:00:02.000160
MEAN_MOTION    = 15.50598200
ECCENTRICITY   = .00016229
INCLINATION    = 42.9999
RA_OF_ASC_NODE = 68.4611
ARG_OF_PERICENTER = 269.0013
MEAN_ANOMALY   = 41.2979

EPHEMERIS_TYPE = 0
CLASSIFICATION_TYPE = U
NORAD_CAT_ID   = 66541
ELEMENT_SET_NO = 999
REV_AT_EPOCH   = 459
BSTAR          = -.11894588E-2
MEAN_MOTION_DOT = -.69553E-3
MEAN_MOTION_DDOT = 0

CCSDS_OMM_VERS = 2.0
CREATION_DATE  = 
ORIGINATOR     = 

OBJECT_NAME    = STARLINK-35833
OBJECT_ID      = 2025-265AC
CENTER_NAME    = EARTH
REF_FRAME      = TEME
TIME_SYSTEM    = UTC
MEAN_ELEMENT_THEORY = SGP/SGP4

EPOCH          = 2025-12-10T06:00:02.000160
MEAN_MOTION    = 15.50594806
ECCENTRICITY   = .00016073
INCLINATION    = 43.0000
RA_OF_ASC_NODE = 68.4565
ARG_OF_PERICENTER = 269.4412
MEAN_ANOMALY   = 42.7776

EPHEMERIS_TYPE = 0
CLASSIFICATION_TYPE = U
NORAD_CAT_ID   = 66542
ELEMENT_SET_NO = 999
REV_AT_EPOCH   = 459
BSTAR          = -.11142593E-2
MEAN_MOTION_DOT = -.65205E-3
MEAN_MOTION_DDOT = 0

CCSDS_OMM_VERS = 2.0
CREATION_DATE  = 
ORIGINATOR     = 

OBJECT_NAME    = STARLINK-35315
OBJECT_ID      = 2025-265AD
CENTER_NAME    = EARTH
REF_FRAME      = TEME
TIME_SYSTEM    = UTC
MEAN_ELEMENT_THEORY = SGP/SGP4

EPOCH          = 2025-12-10T06:00:02.000160
MEAN_MOTION    = 15.50592289
ECCENTRICITY   = .00016419
INCLINATION    = 43.0000
RA_OF_ASC_NODE = 68.4515
ARG_OF_PERICENTER = 266.3374
MEAN_ANOMALY   = 47.7923

EPHEMERIS_TYPE = 0
CLASSIFICATION_TYPE = U
NORAD_CAT_ID   = 66543
ELEMENT_SET_NO = 999
REV_AT_EPOCH   = 448
BSTAR          = -.99069801E-3
MEAN_MOTION_DOT = -.5806E-3
MEAN_MOTION_DDOT = 0

CCSDS_OMM_VERS = 2.0
CREATION_DATE  = 
ORIGINATOR     = 

OBJECT_NAME    = STARLINK-35728
OBJECT_ID      = 2025-265AE
CENTER_NAME    = EARTH
REF_FRAME      = TEME
TIME_SYSTEM    = UTC
MEAN_ELEMENT_THEORY = SGP/SGP4

EPOCH          = 2025-12-10T06:00:02.000160
MEAN_MOTION    = 15.50601018
ECCENTRICITY   = .00015958
INCLINATION    = 43.0000
RA_OF_ASC_NODE = 68.4464
ARG_OF_PERICENTER = 265.5013
MEAN_ANOMALY   = 50.5475

EPHEMERIS_TYPE = 0
CLASSIFICATION_TYPE = U
NORAD_CAT_ID   = 66544
ELEMENT_SET_NO = 999
REV_AT_EPOCH   = 459
BSTAR          = -.12520519E-2
MEAN_MOTION_DOT = -.73169E-3
MEAN_MOTION_DDOT = 0

CCSDS_OMM_VERS = 2.0
CREATION_DATE  = 
ORIGINATOR     = 

OBJECT_NAME    = SHIJIAN-30A
OBJECT_ID      = 2025-266A
CENTER_NAME    = EARTH
REF_FRAME      = TEME
TIME_SYSTEM    = UTC
MEAN_ELEMENT_THEORY = SGP/SGP4

EPOCH          = 2025-12-10T06:01:46.100928
MEAN_MOTION    = 15.15568040
ECCENTRICITY   = .00127572
INCLINATION    = 51.7989
RA_OF_ASC_NODE = 344.5205
ARG_OF_PERICENTER = 347.3790
MEAN_ANOMALY   = 12.6865

EPHEMERIS_TYPE = 0
CLASSIFICATION_TYPE = U
NORAD_CAT_ID   = 66545
ELEMENT_SET_NO = 999
REV_AT_EPOCH   = 320
BSTAR          = .80298616E-3
MEAN_MOTION_DOT = .15179E-3
MEAN_MOTION_DDOT = 0

CCSDS_OMM_VERS = 2.0
CREATION_DATE  = 
ORIGINATOR     = 

OBJECT_NAME    = SHIJIAN-30B
OBJECT_ID      = 2025-266B
CENTER_NAME    = EARTH
REF_FRAME      = TEME
TIME_SYSTEM    = UTC
MEAN_ELEMENT_THEORY = SGP/SGP4

EPOCH          = 2025-12-10T07:37:50.051424
MEAN_MOTION    = 15.15316921
ECCENTRICITY   = .00104483
INCLINATION    = 51.7973
RA_OF_ASC_NODE = 344.2137
ARG_OF_PERICENTER = 350.5817
MEAN_ANOMALY   = 9.4962

EPHEMERIS_TYPE = 0
CLASSIFICATION_TYPE = U
NORAD_CAT_ID   = 66546
ELEMENT_SET_NO = 999
REV_AT_EPOCH   = 321
BSTAR          = .80836483E-3
MEAN_MOTION_DOT = .15163E-3
MEAN_MOTION_DDOT = 0

CCSDS_OMM_VERS = 2.0
CREATION_DATE  = 
ORIGINATOR     = 

OBJECT_NAME    = SHIJIAN-30C
OBJECT_ID      = 2025-266C
CENTER_NAME    = EARTH
REF_FRAME      = TEME
TIME_SYSTEM    = UTC
MEAN_ELEMENT_THEORY = SGP/SGP4

EPOCH          = 2025-12-10T07:38:35.231712
MEAN_MOTION    = 15.15574567
ECCENTRICITY   = .00114684
INCLINATION    = 51.7981
RA_OF_ASC_NODE = 344.2163
ARG_OF_PERICENTER = 342.0581
MEAN_ANOMALY   = 17.9989

EPHEMERIS_TYPE = 0
CLASSIFICATION_TYPE = U
NORAD_CAT_ID   = 66547
ELEMENT_SET_NO = 999
REV_AT_EPOCH   = 321
BSTAR          = .84726307E-3
MEAN_MOTION_DOT = .16032E-3
MEAN_MOTION_DDOT = 0

