STARLINK-35640          
1 66536U 25265W   25344.25002315 -.00067209  00000+0 -11489-2 0  9992
2 66536  42.9999  68.4860 0001639 268.2777  32.4366 15.50596261  4570
STARLINK-35582          
1 66537U 25265X   25344.25002315  .00056373  00000+0  96158-3 0  9998
2 66537  43.0000  68.4816 0001433 262.7551  39.8889 15.50527495  4594
STARLINK-35577          
1 66538U 25265Y   25344.25002315 -.00062333  00000+0 -10646-2 0  9991
2 66538  42.9999  68.4756 0001613 265.9678  38.5841 15.50592480  4598
STARLINK-35697          
1 66539U 25265Z   25344.25002315 -.00043757  00000+0 -74412-3 0  9993
2 66539  43.0000  68.4707 0001616 266.3692  40.0975 15.50581817  4592
STARLINK-35818          
1 66540U 25265AA  25344.25002315 -.00070077  00000+0 -11985-2 0  9995
2 66540  42.9999  68.4658 0001589 271.2660  37.1159 15.50598599  4599
STARLINK-35796          
1 66541U 25265AB  25344.25002315 -.00069553  00000+0 -11895-2 0  9993
2 66541  42.9999  68.4611 0001622 269.0013  41.2979 15.50598200  4599
STARLINK-35833          
1 66542U 25265AC  25344.25002315 -.00065205  00000+0 -11143-2 0  9990
2 66542  43.0000  68.4565 0001607 269.4412  42.7776 15.50594806  4592
STARLINK-35315          
1 66543U 25265AD  25344.25002315 -.00058060  00000+0 -99070-3 0  9998
2 66543  43.0000  68.4515 0001641 266.3374  47.7923 15.50592289  4489
STARLINK-35728          
1 66544U 25265AE  25344.25002315 -.00073169  00000+0 -12521-2 0  9991
2 66544  43.0000  68.4464 0001595 265.5013  50.5475 15.50601018  4599
SHIJIAN-30A             
1 66545U 25266A   25344.25122802  .00015179  00000+0  80299-3 0  9990
2 66545  51.7989 344.5205 0012757 347.3790  12.6865 15.15568040  3203
SHIJIAN-30B             
1 66546U 25266B   25344.31794041  .00015163  00000+0  80836-3 0  9998
2 66546  51.7973 344.2137 0010448 350.5817   9.4962 15.15316921  3211
SHIJIAN-30C             
1 66547U 25266C   25344.31846333  .00016032  00000+0  84726-3 0  9999
2 66547  51.7981 344.2163 0011468 342.0581  17.9989 15.15574567  3212
